ONEWEB-0520             
1 54138U 22138AB  26124.00447797  .00000068  00000+0  13743-3 0  9994
2 54138  87.9153 313.7746 0001910  81.0269 279.1080 13.19725231170991
ONEWEB-0521             
1 54139U 22138AC  26124.03763756 -.00000039  00000+0 -12941-3 0  9993
2 54139  87.9155 313.7559 0001940  95.9022 264.2332 13.19724331170940
ONEWEB-0522             
1 54140U 22138AD  26124.09292918  .00000080  00000+0  16841-3 0  9995
2 54140  87.9156 313.7468 0001913  85.3689 274.7662 13.19725021170998
ONEWEB-0523             
1 54141U 22138AE  26124.16730161 -.00000020  00000+0 -81556-4 0  9993
2 54141  87.9152 283.2225 0001670 122.9518 237.1776 13.20770812173493
ONEWEB-0524             
1 54142U 22138AF  26124.15624190  .00000072  00000+0  14577-3 0  9990
2 54142  87.9150 283.2217 0000920  99.6403 260.4834 13.20770195173491
ONEWEB-0525             
1 54143U 22138AG  26124.03606950  .00000034  00000+0  53737-4 0  9992
2 54143  87.9153 313.7674 0001905  81.3451 278.7897 13.19724494171001
ONEWEB-0526             
1 54144U 22138AH  26123.91758943  .00001196  00000+0  29548-2 0  9990
2 54144  87.9154 313.7904 0001731  86.9548 273.1782 13.19736184170969
ONEWEB-0529             
1 54145U 22138AJ  26123.92075873  .00000294  00000+0  70189-3 0  9992
2 54145  87.9153 313.8017 0001915  80.9854 279.1495 13.19725697170989
ONEWEB-0531             
1 54146U 22138AK  26124.14203490 -.00000007  00000+0 -48608-4 0  9992
2 54146  87.9147 283.2230 0001332 124.7904 235.3355 13.20770943173490
ONEWEB-0535             
1 54147U 22138AL  26124.02974882  .00000035  00000+0  55792-4 0  9991
2 54147  87.9154 313.7618 0001742 100.3493 259.7836 13.19724765171015
ONEWEB-0536             
1 54148U 22138AM  26124.12940479 -.00000046  00000+0 -14403-3 0  9995
2 54148  87.9138 283.2529 0001174 127.1745 232.9495 13.20770066173480
ONEWEB-0527             
1 54642U 22166A   26124.11543801  .00000023  00000+0  23164-4 0  9990
2 54642  87.9227 252.7679 0001810  99.5643 260.5695 13.21826315165717
ONEWEB-0528             
1 54643U 22166B   26124.04562326 -.00000065  00000+0 -18832-3 0  9999
2 54643  87.9228 252.7860 0001876  92.5960 267.5388 13.21824765165711
ONEWEB-0539             
1 54644U 22166C   26124.08431788 -.00000037  00000+0 -12033-3 0  9997
2 54644  87.9235 252.7473 0002172 100.9847 259.1532 13.21826874165719
ONEWEB-0540             
1 54645U 22166D   26124.09118124  .00000076  00000+0  15343-3 0  9993
2 54645  87.9230 252.7792 0001999 101.8466 258.2892 13.21827323165700
ONEWEB-0542             
1 54646U 22166E   26124.09440787 -.00000007  00000+0 -49260-4 0  9999
2 54646  87.9238 252.7432 0002218 102.8216 257.3166 13.21827132165712
