[{"OBJECT_NAME":"ONEWEB-0520","OBJECT_ID":"2022-138AB","EPOCH":"2026-05-04T00:06:26.896608","MEAN_MOTION":13.19725231,"ECCENTRICITY":0.000191,"INCLINATION":87.9153,"RA_OF_ASC_NODE":313.7746,"ARG_OF_PERICENTER":81.0269,"MEAN_ANOMALY":279.108,"EPHEMERIS_TYPE":0,"CLASSIFICATION_TYPE":"U","NORAD_CAT_ID":54138,"ELEMENT_SET_NO":999,"REV_AT_EPOCH":17099,"BSTAR":0.00013743,"MEAN_MOTION_DOT":6.8e-07,"MEAN_MOTION_DDOT":0.0},{"OBJECT_NAME":"ONEWEB-0521","OBJECT_ID":"2022-138AC","EPOCH":"2026-05-04T00:54:11.885184","MEAN_MOTION":13.19724331,"ECCENTRICITY":0.000194,"INCLINATION":87.9155,"RA_OF_ASC_NODE":313.7559,"ARG_OF_PERICENTER":95.9022,"MEAN_ANOMALY":264.2332,"EPHEMERIS_TYPE":0,"CLASSIFICATION_TYPE":"U","NORAD_CAT_ID":54139,"ELEMENT_SET_NO":999,"REV_AT_EPOCH":17094,"BSTAR":-0.00012941,"MEAN_MOTION_DOT":-3.9e-07,"MEAN_MOTION_DDOT":0.0},{"OBJECT_NAME":"ONEWEB-0522","OBJECT_ID":"2022-138AD","EPOCH":"2026-05-04T02:13:49.081152","MEAN_MOTION":13.19725021,"ECCENTRICITY":0.0001913,"INCLINATION":87.9156,"RA_OF_ASC_NODE":313.7468,"ARG_OF_PERICENTER":85.3689,"MEAN_ANOMALY":274.7662,"EPHEMERIS_TYPE":0,"CLASSIFICATION_TYPE":"U","NORAD_CAT_ID":54140,"ELEMENT_SET_NO":999,"REV_AT_EPOCH":17099,"BSTAR":0.00016841,"MEAN_MOTION_DOT":8e-07,"MEAN_MOTION_DDOT":0.0},{"OBJECT_NAME":"ONEWEB-0523","OBJECT_ID":"2022-138AE","EPOCH":"2026-05-04T04:00:54.859104","MEAN_MOTION":13.20770812,"ECCENTRICITY":0.000167,"INCLINATION":87.9152,"RA_OF_ASC_NODE":283.2225,"ARG_OF_PERICENTER":122.9518,"MEAN_ANOMALY":237.1776,"EPHEMERIS_TYPE":0,"CLASSIFICATION_TYPE":"U","NORAD_CAT_ID":54141,"ELEMENT_SET_NO":999,"REV_AT_EPOCH":17349,"BSTAR":-8.1556e-05,"MEAN_MOTION_DOT":-2e-07,"MEAN_MOTION_DDOT":0.0},{"OBJECT_NAME":"ONEWEB-0524","OBJECT_ID":"2022-138AF","EPOCH":"2026-05-04T03:44:59.300160","MEAN_MOTION":13.20770195,"ECCENTRICITY":9.2e-05,"INCLINATION":87.915,"RA_OF_ASC_NODE":283.2217,"ARG_OF_PERICENTER":99.6403,"MEAN_ANOMALY":260.4834,"EPHEMERIS_TYPE":0,"CLASSIFICATION_TYPE":"U","NORAD_CAT_ID":54142,"ELEMENT_SET_NO":999,"REV_AT_EPOCH":17349,"BSTAR":0.00014577,"MEAN_MOTION_DOT":7.2e-07,"MEAN_MOTION_DDOT":0.0},{"OBJECT_NAME":"ONEWEB-0525","OBJECT_ID":"2022-138AG","EPOCH":"2026-05-04T00:51:56.404800","MEAN_MOTION":13.19724494,"ECCENTRICITY":0.0001905,"INCLINATION":87.9153,"RA_OF_ASC_NODE":313.7674,"ARG_OF_PERICENTER":81.3451,"MEAN_ANOMALY":278.7897,"EPHEMERIS_TYPE":0,"CLASSIFICATION_TYPE":"U","NORAD_CAT_ID":54143,"ELEMENT_SET_NO":999,"REV_AT_EPOCH":17100,"BSTAR":5.3737000000000004e-05,"MEAN_MOTION_DOT":3.4e-07,"MEAN_MOTION_DDOT":0.0},{"OBJECT_NAME":"ONEWEB-0526","OBJECT_ID":"2022-138AH","EPOCH":"2026-05-03T22:01:19.726752","MEAN_MOTION":13.19736184,"ECCENTRICITY":0.0001731,"INCLINATION":87.9154,"RA_OF_ASC_NODE":313.7904,"ARG_OF_PERICENTER":86.9548,"MEAN_ANOMALY":273.1782,"EPHEMERIS_TYPE":0,"CLASSIFICATION_TYPE":"U","NORAD_CAT_ID":54144,"ELEMENT_SET_NO":999,"REV_AT_EPOCH":17096,"BSTAR":0.0029548000000000005,"MEAN_MOTION_DOT":1.196e-05,"MEAN_MOTION_DDOT":0.0},{"OBJECT_NAME":"ONEWEB-0529","OBJECT_ID":"2022-138AJ","EPOCH":"2026-05-03T22:05:53.554272","MEAN_MOTION":13.19725697,"ECCENTRICITY":0.0001915,"INCLINATION":87.9153,"RA_OF_ASC_NODE":313.8017,"ARG_OF_PERICENTER":80.9854,"MEAN_ANOMALY":279.1495,"EPHEMERIS_TYPE":0,"CLASSIFICATION_TYPE":"U","NORAD_CAT_ID":54145,"ELEMENT_SET_NO":999,"REV_AT_EPOCH":17098,"BSTAR":0.00070189,"MEAN_MOTION_DOT":2.94e-06,"MEAN_MOTION_DDOT":0.0},{"OBJECT_NAME":"ONEWEB-0531","OBJECT_ID":"2022-138AK","EPOCH":"2026-05-04T03:24:31.815360","MEAN_MOTION":13.20770943,"ECCENTRICITY":0.0001332,"INCLINATION":87.9147,"RA_OF_ASC_NODE":283.223,"ARG_OF_PERICENTER":124.7904,"MEAN_ANOMALY":235.3355,"EPHEMERIS_TYPE":0,"CLASSIFICATION_TYPE":"U","NORAD_CAT_ID":54146,"ELEMENT_SET_NO":999,"REV_AT_EPOCH":17349,"BSTAR":-4.8608000000000006e-05,"MEAN_MOTION_DOT":-7e-08,"MEAN_MOTION_DDOT":0.0},{"OBJECT_NAME":"ONEWEB-0535","OBJECT_ID":"2022-138AL","EPOCH":"2026-05-04T00:42:50.298048","MEAN_MOTION":13.19724765,"ECCENTRICITY":0.0001742,"INCLINATION":87.9154,"RA_OF_ASC_NODE":313.7618,"ARG_OF_PERICENTER":100.3493,"MEAN_ANOMALY":259.7836,"EPHEMERIS_TYPE":0,"CLASSIFICATION_TYPE":"U","NORAD_CAT_ID":54147,"ELEMENT_SET_NO":999,"REV_AT_EPOCH":17101,"BSTAR":5.5792e-05,"MEAN_MOTION_DOT":3.5e-07,"MEAN_MOTION_DDOT":0.0},{"OBJECT_NAME":"ONEWEB-0536","OBJECT_ID":"2022-138AM","EPOCH":"2026-05-04T03:06:20.573856","MEAN_MOTION":13.20770066,"ECCENTRICITY":0.0001174,"INCLINATION":87.9138,"RA_OF_ASC_NODE":283.2529,"ARG_OF_PERICENTER":127.1745,"MEAN_ANOMALY":232.9495,"EPHEMERIS_TYPE":0,"CLASSIFICATION_TYPE":"U","NORAD_CAT_ID":54148,"ELEMENT_SET_NO":999,"REV_AT_EPOCH":17348,"BSTAR":-0.00014403,"MEAN_MOTION_DOT":-4.6e-07,"MEAN_MOTION_DDOT":0.0},{"OBJECT_NAME":"ONEWEB-0527","OBJECT_ID":"2022-166A","EPOCH":"2026-05-04T02:46:13.844064","MEAN_MOTION":13.21826315,"ECCENTRICITY":0.000181,"INCLINATION":87.9227,"RA_OF_ASC_NODE":252.7679,"ARG_OF_PERICENTER":99.5643,"MEAN_ANOMALY":260.5695,"EPHEMERIS_TYPE":0,"CLASSIFICATION_TYPE":"U","NORAD_CAT_ID":54642,"ELEMENT_SET_NO":999,"REV_AT_EPOCH":16571,"BSTAR":2.3164000000000004e-05,"MEAN_MOTION_DOT":2.3e-07,"MEAN_MOTION_DDOT":0.0},{"OBJECT_NAME":"ONEWEB-0528","OBJECT_ID":"2022-166B","EPOCH":"2026-05-04T01:05:41.849664","MEAN_MOTION":13.21824765,"ECCENTRICITY":0.0001876,"INCLINATION":87.9228,"RA_OF_ASC_NODE":252.786,"ARG_OF_PERICENTER":92.596,"MEAN_ANOMALY":267.5388,"EPHEMERIS_TYPE":0,"CLASSIFICATION_TYPE":"U","NORAD_CAT_ID":54643,"ELEMENT_SET_NO":999,"REV_AT_EPOCH":16571,"BSTAR":-0.00018831999999999999,"MEAN_MOTION_DOT":-6.5e-07,"MEAN_MOTION_DDOT":0.0},{"OBJECT_NAME":"ONEWEB-0539","OBJECT_ID":"2022-166C","EPOCH":"2026-05-04T02:01:25.064832","MEAN_MOTION":13.21826874,"ECCENTRICITY":0.0002172,"INCLINATION":87.9235,"RA_OF_ASC_NODE":252.7473,"ARG_OF_PERICENTER":100.9847,"MEAN_ANOMALY":259.1532,"EPHEMERIS_TYPE":0,"CLASSIFICATION_TYPE":"U","NORAD_CAT_ID":54644,"ELEMENT_SET_NO":999,"REV_AT_EPOCH":16571,"BSTAR":-0.00012033000000000001,"MEAN_MOTION_DOT":-3.7e-07,"MEAN_MOTION_DDOT":0.0},{"OBJECT_NAME":"ONEWEB-0540","OBJECT_ID":"2022-166D","EPOCH":"2026-05-04T02:11:18.059136","MEAN_MOTION":13.21827323,"ECCENTRICITY":0.0001999,"INCLINATION":87.923,"RA_OF_ASC_NODE":252.7792,"ARG_OF_PERICENTER":101.8466,"MEAN_ANOMALY":258.2892,"EPHEMERIS_TYPE":0,"CLASSIFICATION_TYPE":"U","NORAD_CAT_ID":54645,"ELEMENT_SET_NO":999,"REV_AT_EPOCH":16570,"BSTAR":0.00015343000000000003,"MEAN_MOTION_DOT":7.6e-07,"MEAN_MOTION_DDOT":0.0},{"OBJECT_NAME":"ONEWEB-0542","OBJECT_ID":"2022-166E","EPOCH":"2026-05-04T02:15:56.839968","MEAN_MOTION":13.21827132,"ECCENTRICITY":0.0002218,"INCLINATION":87.9238,"RA_OF_ASC_NODE":252.7432,"ARG_OF_PERICENTER":102.8216,"MEAN_ANOMALY":257.3166,"EPHEMERIS_TYPE":0,"CLASSIFICATION_TYPE":"U","NORAD_CAT_ID":54646,"ELEMENT_SET_NO":999,"REV_AT_EPOCH":16571,"BSTAR":-4.926e-05,"MEAN_MOTION_DOT":-7e-08,"MEAN_MOTION_DDOT":0.0}]